GAOFEN 3                
1 41727U 16049A   20115.91269748 -.00000031  00000-0  37564-5 0  9991
2 41727  98.4134 124.2742 0001683  97.1022 263.0363 14.42211966195153
SKYSAT-C4               
1 41771U 16058B   20115.79782519  .00001239  00000-0  35684-4 0  9992
2 41771  97.2125 186.9054 0002326 104.8454 255.3048 15.37637896200420
SKYSAT-C5               
1 41772U 16058C   20115.84247806  .00000680  00000-0  31166-4 0  9994
2 41772  97.3611 186.5452 0002105  82.0859  25.1331 15.23783827200374
SKYSAT-C2               
1 41773U 16058D   20115.77581650  .00001240  00000-0  35565-4 0  9995
2 41773  97.2129 187.1892 0002286  83.6103 276.5402 15.37765994200441
SKYSAT-C3               
1 41774U 16058E   20115.78728185  .00001252  00000-0  35946-4 0  9999
2 41774  97.2124 187.1805 0003598 106.0392 254.1249 15.37706344200432
ALSAT 1B                
1 41785U 16059C   20115.80469726 -.00000004  00000-0  82539-5 0  9994
2 41785  98.0186 173.1960 0032253 120.4541 239.9836 14.63357786191054
PATHFINDER 1            
1 41787U 16059E   20115.72767536 -.00000001  00000-0  88742-5 0  9996
2 41787  98.0210 174.0973 0031365 118.9363 241.4950 14.63724395191087
SCATSAT 1               
1 41790U 16059H   20115.88214488  .00000006  00000-0  12263-4 0  9998
2 41790  98.1673 157.7472 0007071  84.0877 276.1110 14.50907622189450
WORLDVIEW-4 (WV-4)      
1 41848U 16067A   20115.87841139 -.00000093  00000-0  24131-8 0  9997
2 41848  97.8452 220.0444 0003357 197.2357 162.8663 15.40510845188585
GOKTURK 1A              
1 41875U 16073A   20115.91318912  .00000018  00000-0  12713-4 0  9992
2 41875  98.1594  10.7596 0001363  70.2394 289.8951 14.62751481180739
RESOURCESAT-2A          
1 41877U 16074A   20115.88327767 -.00000026  00000-0  75668-5 0  9998
2 41877  98.5950 186.4395 0001290 108.9522 251.1790 14.21681129175430
CARTOSAT-2D             
1 41948U 17008A   20115.70848237  .00000464  00000-0  25282-4 0  9997
2 41948  97.4969 174.5686 0007710 169.9778 190.1600 15.19200143176806
SENTINEL-2B             
1 42063U 17013A   20115.24240885 -.00000042  00000-0  51060-6 0  9994
2 42063  98.5627 190.2296 0001332  76.7190 283.4119 14.30820558163624
ZHUHAI-1 02 (CAS 4B)    
1 42759U 17034B   20115.83801904  .00000326  00000-0  33290-4 0  9996
2 42759  43.0202 321.6275 0010622  46.5386  71.3307 15.09798017157864
NUSAT-3 (MILANESAT)     
1 42760U 17034C   20115.87130789  .00000387  00000-0  36555-4 0  9992
2 42760  43.0185 320.2819 0008975  66.5098 317.2526 15.10267043157895
ZHUHAI-1 01 (CAS 4A)    
1 42761U 17034D   20115.85180637  .00000234  00000-0  27667-4 0  9993
2 42761  43.0199 320.8873 0010789  48.3285  72.4773 15.09875658157865
CARTOSAT-2E             
1 42767U 17036C   20115.92452336  .00000417  00000-0  22973-4 0  9995
2 42767  97.4274 175.5315 0007611 223.2083 136.8555 15.19247057157404
FORMOSAT-5              
1 42920U 17049A   20115.85558209 -.00000044  00000-0  12345-6 0  9999
2 42920  98.3000 195.5333 0011581 130.3760 229.8436 14.50847717141244
SENTINEL-5P             
1 42969U 17064A   20115.75447539 -.00000022  00000-0  10559-4 0  9990
2 42969  98.7322  55.6213 0001137  89.4369 270.6937 14.19552447131131
SKYSAT-C11              
1 42987U 17068A   20115.79122692  .00001364  00000-0  38527-4 0  9992
2 42987  97.2238 230.8304 0008544 240.1826 119.8570 15.38061773137831
SKYSAT-C10              
1 42988U 17068B   20115.77869334  .00001428  00000-0  40283-4 0  9995
2 42988  97.2279 230.5676 0002009 295.9227  64.1811 15.38033019137853
SKYSAT-C9               
1 42989U 17068C   20115.76692837  .00001472  00000-0  41342-4 0  9993
2 42989  97.2241 230.1995 0003359 119.8760 240.2819 15.38137132138046
SKYSAT-C8               
1 42990U 17068D   20115.56459234  .00001376  00000-0  38827-4 0  9992
2 42990  97.2277 230.7374 0001229 228.0756 132.0385 15.38099922137843
SKYSAT-C7               
1 42991U 17068E   20115.68202430  .00001423  00000-0  39968-4 0  9990
2 42991  97.2282 230.8498 0000724 122.3268 237.8047 15.38172207137860
SKYSAT-C6               
1 42992U 17068F   20115.54170815  .00001414  00000-0  39742-4 0  9997
2 42992  97.2295 230.9101 0003450 126.6165 233.5398 15.38167489137856
CARTOSAT-2F             
1 43111U 18004A   20115.85154574  .00000430  00000-0  23536-4 0  9991
2 43111  97.3901 176.6954 0002991 235.3218 248.8420 15.19266426126575
MICROSAT-TD             
1 43128U 18004T   20115.77620405  .00024992  00000-0  14434-3 0  9996
2 43128  96.7585 169.3033 0006775  24.8099 335.3494 15.78597355130912
NUSAT-4 (ADA)           
1 43195U 18015D   20115.85820398  .00001311  00000-0  56252-4 0  9999
2 43195  97.4307 244.9530 0015985 288.4784 223.5120 15.24417029123725
NUSAT-5 (MARYAM)        
1 43204U 18015K   20115.85386147  .00001356  00000-0  57776-4 0  9990
2 43204  97.4315 245.1400 0015523 291.0993 220.4031 15.24624010123338
GAOFEN 1-02             
1 43259U 18031A   20115.77714165  .00000030  00000-0  11648-4 0  9990
2 43259  97.9661 194.8580 0005007  21.0563 339.0846 14.76444723111500
GAOFEN 1-03             
1 43260U 18031B   20115.89012394  .00000048  00000-0  14152-4 0  9992
2 43260  97.9655 194.9810 0006758  80.0172 280.1780 14.76446837111519
GAOFEN 1-04             
1 43262U 18031D   20115.86750236  .00000059  00000-0  15757-4 0  9999
2 43262  97.9660 194.9217 0004661  32.1001 328.0480 14.76450023111508
SENTINEL-3B             
1 43437U 18039A   20115.75254221  .00000006  00000-0  20671-4 0  9995
2 43437  98.6318 183.2023 0001172  76.6325 283.4986 14.26734113104082
GAOFEN 5                
1 43461U 18043A   20115.80869973  .00000004  00000-0  10714-4 0  9994
2 43461  98.1942  53.7366 0001491 161.8200 198.3062 14.57758117104488
GAOFEN 6                
1 43484U 18048A   20115.89498721  .00000040  00000-0  13168-4 0  9998
2 43484  97.9874 196.3017 0008807 201.2223 158.8605 14.76488196102225
GAOFEN 11               
1 43585U 18063A   20115.89508787  .00000733  00000-0  33485-4 0  9994
2 43585  97.3850 196.3628 0018124  50.1156  40.0339 15.23568152 97089
AEOLUS                  
1 43600U 18066A   20115.75500953  .00025293  00000-0  10065-3 0  9993
2 43600  96.7211 122.9552 0006887  99.3309 260.8743 15.86607394 96856
ICESAT-2                
1 43613U 18070A   20115.80002309  .00001144  00000-0  41371-4 0  9994
2 43613  92.0008  46.9291 0002963  97.7916 262.3669 15.28277292 89699
HYSIS                   
1 43719U 18096A   20115.82073029  .00000097  00000-0  20170-4 0  9998
2 43719  97.9075 183.9630 0011760  46.8490 313.3692 14.78730067 75742
KAZSTSAT                
1 43783U 18099AB  20115.79029296 -.00000088  00000-0 -30237-5 0  9993
2 43783  97.7211 188.0312 0008657  12.4379 347.7053 14.93605513 75827
SAUDISAT 5A             
1 43831U 18102A   20115.83516196  .00000653  00000-0  46442-4 0  9997
2 43831  97.5729 192.6159 0013893 347.2106 150.6140 15.08031554 76057
SAUDISAT 5B             
1 43833U 18102C   20115.88732742  .00000174  00000-0  15207-4 0  9994
2 43833  97.5729 192.9976 0015155 355.4046 140.2633 15.08470267 76078
GAOFEN 10R              
1 44622U 19066A   20115.90511500  .00000103  00000-0  20034-4 0  9997
2 44622  97.8130  60.6455 0001929  68.9548 291.1874 14.80658891 30066
CARTOSAT-3              
1 44804U 19081A   20115.85299828  .00000307  00000-0  18020-4 0  9994
2 44804  97.5015 176.9995 0017009  77.2197  44.8603 15.18806732 22667
GAOFEN 12               
1 44819U 19082A   20115.94886811 -.00000013  00000-0  50816-5 0  9990
2 44819  97.9173 138.7085 0001645 100.7199 259.4201 14.80204052 22035
NUSAT-7 (SOPHIE)        
1 45017U 20003B   20115.79235510  .00000711  00000-0  29104-4 0  9992
2 45017  97.3206 182.9387 0011427 278.8341  81.1604 15.27474067 15360
NUSAT-8 (MARIE)         
1 45018U 20003C   20115.80783074  .00001040  00000-0  41647-4 0  9990
2 45018  97.3223 182.9385 0010596 275.2276  84.7754 15.27231647 15362
